[{"OBJECT_NAME":"STARLINK-35000","OBJECT_ID":"2025-184F","EPOCH":"2026-03-09T15:57:10.240704","MEAN_MOTION":15.05651833,"ECCENTRICITY":0.00014184,"INCLINATION":97.6025,"RA_OF_ASC_NODE":122.5825,"ARG_OF_PERICENTER":119.6372,"MEAN_ANOMALY":240.4997,"EPHEMERIS_TYPE":0,"CLASSIFICATION_TYPE":"U","NORAD_CAT_ID":65278,"ELEMENT_SET_NO":999,"REV_AT_EPOCH":3129,"BSTAR":0.00025453426,"MEAN_MOTION_DOT":3.614e-5,"MEAN_MOTION_DDOT":0},{"OBJECT_NAME":"CZ-2D DEB","OBJECT_ID":"2017-060B","EPOCH":"2026-03-09T14:15:36.855648","MEAN_MOTION":14.99543568,"ECCENTRICITY":0.002893,"INCLINATION":97.5408,"RA_OF_ASC_NODE":90.0945,"ARG_OF_PERICENTER":284.1616,"MEAN_ANOMALY":75.6394,"EPHEMERIS_TYPE":0,"CLASSIFICATION_TYPE":"U","NORAD_CAT_ID":44609,"ELEMENT_SET_NO":999,"REV_AT_EPOCH":45025,"BSTAR":0.00057261,"MEAN_MOTION_DOT":7.042e-5,"MEAN_MOTION_DDOT":0}]
